0 DELTA 1 R/B(1)
1 14051U 83041B   13281.68276586  .00003169  00000-0  29990-3 0  3603
2 14051 025.3391 190.6918 1142924 201.8304 198.4195 12.98000839402341
0 DELTA 1 R/B(1)
1 14051U 83041B   13282.84622391  .00003355  00000-0  31861-3 0  3619
2 14051 025.3401 184.9801 1142922 211.5743 235.0473 12.98015502402499
0 DELTA 1 R/B(1)
1 14051U 83041B   13284.16638588  .00003986  00000-0  38318-3 0  3626
2 14051 025.3407 178.5006 1142995 222.6312 283.9824 12.98020951402661
0 DELTA 1 R/B(1)
1 14051U 83041B   13286.84652646  .00003637  00000-0  34648-3 0  3641
2 14051 025.3423 165.3473 1142993 245.0704 208.0183 12.98035299403010
0 DELTA 1 R/B(1)
1 14051U 83041B   13287.84896576  .00004754  00000-0  46181-3 0  3651
2 14051 025.3425 160.4282 1142993 253.4626 212.3577 12.98042204403145
0 DELTA 1 R/B(1)
1 14051U 83041B   13288.84964076  .00004103  00000-0  39452-3 0  3665
2 14051 025.3424 155.5175 1143018 261.8401 208.4764 12.98049678403273
0 DELTA 1 R/B(1)
1 14051U 83041B   13289.85092205  .00004651  00000-0  45115-3 0  3675
2 14051 025.3420 150.6030 1143028 270.2228 207.4579 12.98056059403406
0 DELTA 1 R/B(1)
1 14051U 83041B   13291.09589308  .00003746  00000-0  35782-3 0  3683
2 14051 025.3413 144.4917 1143063 280.6477 265.2276 12.98063731403561
0 DELTA 1 R/B(1)
1 14051U 83041B   13292.84837514  .00003763  00000-0  36052-3 0  3693
2 14051 025.3397 135.8895 1142929 295.3272 174.6560 12.98072938403790
0 DELTA 1 R/B(1)
1 14051U 83041B   13294.09064800  .00003797  00000-0  36466-3 0  3700
2 14051 025.3387 129.7906 1142875 305.7339 219.8887 12.98079065403954
0 DELTA 1 R/B(1)
1 14051U 83041B   13295.51960619  .00004347  00000-0  42277-3 0  3711
2 14051 025.3368 122.7723 1142693 317.7080 057.5551 12.98087899404137
